<ndm xsi:noNamespaceSchemaLocation="https://sanaregistry.org/r/ndmxml_unqualified/ndmxml-3.0.0-master-3.0.xsd">
<omm id="CCSDS_OMM_VERS" version="3.0">
<header>
<COMMENT>GENERATED VIA SPACE-TRACK.ORG API</COMMENT>
<CREATION_DATE>2025-06-01T02:33:10</CREATION_DATE>
<ORIGINATOR>18 SPCS</ORIGINATOR>
</header>
<body>
<segment>
<metadata>
<OBJECT_NAME>CZ-4B DEB</OBJECT_NAME>
<OBJECT_ID>2025-115B</OBJECT_ID>
<CENTER_NAME>EARTH</CENTER_NAME>
<REF_FRAME>TEME</REF_FRAME>
<TIME_SYSTEM>UTC</TIME_SYSTEM>
<MEAN_ELEMENT_THEORY>SGP4</MEAN_ELEMENT_THEORY>
</metadata>
<data>
<meanElements>
<EPOCH>2025-05-31T22:27:38.215872</EPOCH>
<MEAN_MOTION>15.10443916</MEAN_MOTION>
<ECCENTRICITY>0.00620240</ECCENTRICITY>
<INCLINATION>97.5233</INCLINATION>
<RA_OF_ASC_NODE>227.2964</RA_OF_ASC_NODE>
<ARG_OF_PERICENTER>185.9303</ARG_OF_PERICENTER>
<MEAN_ANOMALY>174.1200</MEAN_ANOMALY>
</meanElements>
<tleParameters>
<EPHEMERIS_TYPE>0</EPHEMERIS_TYPE>
<CLASSIFICATION_TYPE>U</CLASSIFICATION_TYPE>
<NORAD_CAT_ID>64200</NORAD_CAT_ID>
<ELEMENT_SET_NO>999</ELEMENT_SET_NO>
<REV_AT_EPOCH>41</REV_AT_EPOCH>
<BSTAR>0.00151640000000</BSTAR>
<MEAN_MOTION_DOT>0.00026113</MEAN_MOTION_DOT>
<MEAN_MOTION_DDOT>0.0000000000000</MEAN_MOTION_DDOT>
</tleParameters>
<userDefinedParameters>
<USER_DEFINED parameter="SEMIMAJOR_AXIS">6912.982</USER_DEFINED>
<USER_DEFINED parameter="PERIOD">95.336</USER_DEFINED>
<USER_DEFINED parameter="APOAPSIS">577.724</USER_DEFINED>
<USER_DEFINED parameter="PERIAPSIS">491.970</USER_DEFINED>
<USER_DEFINED parameter="OBJECT_TYPE">DEBRIS</USER_DEFINED>
<USER_DEFINED parameter="RCS_SIZE"/>
<USER_DEFINED parameter="COUNTRY_CODE">PRC</USER_DEFINED>
<USER_DEFINED parameter="LAUNCH_DATE">2025-05-29</USER_DEFINED>
<USER_DEFINED parameter="SITE">JSC</USER_DEFINED>
<USER_DEFINED parameter="DECAY_DATE"/>
<USER_DEFINED parameter="FILE">4744264</USER_DEFINED>
<USER_DEFINED parameter="GP_ID">288887323</USER_DEFINED>
</userDefinedParameters>
</data>
</segment>
</body>
</omm>
</ndm>
