CZ-4B DEB               
1 64200U 25115B   25151.93585898  .00026113  00000+0  15164-2 0  9996
2 64200  97.5233 227.2964 0062024 185.9303 174.1200 15.10443916   412
